1 29601U 06052A   20229.98911500  .00000004  00000-0  00000-0 0  9993
2 29601  55.9927 298.4934 0076872  66.3068 294.5756  2.00567223100685
1 29601U 06052A   20230.48769059  .00000005  00000-0  00000-0 0  9991
2 29601  55.9930 298.4737 0076872  66.2887 294.5954  2.00567294100697
1 29601U 06052A   20233.47912491 -.00000006  00000-0  00000+0 0  9994
2 29601  55.9908 298.3556 0077016  66.3383 294.5495  2.00567318100803
1 29601U 06052A   20234.47626440 -.00000013  00000-0  00000-0 0  9990
2 29601  55.9898 298.3162 0076979  66.3257 294.5586  2.00567281100777
1 29601U 06052A   20234.47626440 -.00000013  00000-0  00000-0 0  9990
2 29601  55.9898 298.3162 0076979  66.3257 294.5586  2.00567281100823
1 29601U 06052A   20238.96338601 -.00000029  00000-0  00000+0 0  9993
2 29601  55.9863 298.1389 0076769  66.2319 294.6351  2.00567559100918
1 29601U 06052A   20238.96338601 -.00000029  00000-0  00000-0 0  9994
2 29601  55.9863 298.1389 0076769  66.2319 294.6351  2.00567559100918
1 29601U 06052A   20240.45910078 -.00000023  00000-0  00000-0 0  9999
2 29601  55.9854 298.0798 0076402  66.0219 294.8419  2.00567563100947
1 29601U 06052A   20242.45339258 -.00000015  00000-0  00000-0 0  9997
2 29601  55.9839 298.0011 0076277  65.9612 294.9069  2.00567688100932
1 29601U 06052A   20243.45053772 -.00000014  00000-0  00000-0 0  9991
2 29601  55.9828 297.9617 0076215  65.9265 294.9437  2.00567767101002
1 29601U 06052A   20244.44768107 -.00000016  00000-0  00000-0 0  9998
2 29601  55.9820 297.9223 0076142  65.8808 294.9904  2.00567849100973
1 29601U 06052A   20244.94625143 -.00000017  00000-0  00000-0 0  9996
2 29601  55.9817 297.9027 0076068  65.8236 295.0470  2.00567929100983
1 29601U 06052A   20246.44196072 -.00000024  00000-0  00000-0 0  9995
2 29601  55.9814 297.8437 0076706  66.2189 294.6605  2.00568242101069
1 29601U 06052A   20247.93766710 -.00000030  00000-0  00000-0 0  9999
2 29601  55.9804 297.7847 0076799  66.2864 294.5918  2.00568371101096
1 29601U 06052A   20249.43337026 -.00000031  00000-0  00000-0 0  9991
2 29601  55.9793 297.7257 0076820  66.3075 294.5671  2.00568497101071
1 29601U 06052A   20249.43337026 -.00000031  00000-0  00000-0 0  9991
2 29601  55.9793 297.7257 0076820  66.3075 294.5671  2.00568497101127
1 29601U 06052A   20252.42477900 -.00000014  00000-0  00000-0 0  9991
2 29601  55.9773 297.6075 0076820  66.3358 294.5339  2.00568635101187
1 29601U 06052A   20252.92334903 -.00000010  00000-0  00000-0 0  9997
2 29601  55.9770 297.5880 0076833  66.3355 294.5343  2.00568663101195
1 29601U 06052A   20255.41619973  .00000012  00000-0  00000-0 0  9998
2 29601  55.9750 297.4895 0076623  66.1156 294.7545  2.00568528101244
1 29601U 06052A   20256.41334074  .00000019  00000-0  00000-0 0  9992
2 29601  55.9744 297.4501 0076683  66.1676 294.7062  2.00568654101215
1 29601U 06052A   20256.41334084  .00000019  00000-0  00000-0 0  9993
2 29601  55.9743 297.4501 0076692  66.1847 294.6893  2.00568642101212
1 29601U 06052A   20257.41048172  .00000022  00000-0  00000-0 0  9998
2 29601  55.9736 297.4108 0076666  66.1483 294.7278  2.00568669101233
1 29601U 06052A   20258.40762083  .00000023  00000-0  00000-0 0  9993
2 29601  55.9729 297.3714 0076687  66.1743 294.7038  2.00568730101300
1 29601U 06052A   20259.40475727  .00000020  00000-0  00000-0 0  9997
2 29601  55.9722 297.3319 0076816  66.3037 294.5767  2.00568847101278
1 29601U 06052A   20259.40475765  .00000020  00000-0  00000-0 0  9999
2 29601  55.9723 297.3320 0076625  66.0991 294.7780  2.00568744101324
1 29601U 06052A   20260.40189105  .00000014  00000-0  00000-0 0  9994
2 29601  55.9715 297.2925 0076811  66.3031 294.5754  2.00568883101299
1 29601U 06052A   20261.39902170  .00000007  00000-0  00000-0 0  9990
2 29601  55.9708 297.2531 0076807  66.2945 294.5801  2.00568929101319
1 29601U 06052A   20262.39615007 -.00000002  00000-0  00000-0 0  9997
2 29601  55.9702 297.2137 0076803  66.2876 294.5817  2.00568979101338
1 29601U 06052A   20263.39327745 -.00000009  00000-0  00000-0 0  9994
2 29601  55.9694 297.1742 0076805  66.2794 294.5840  2.00569039101356
1 29601U 06052A   20263.39327746 -.00000009  00000-0  00000-0 0  9995
2 29601  55.9694 297.1742 0076799  66.2858 294.5776  2.00569034101352
1 29601U 06052A   20265.38753483 -.00000016  00000-0  00000-0 0  9995
2 29601  55.9680 297.0953 0076809  66.2714 294.5827  2.00569157101446
1 29601U 06052A   20265.38753498 -.00000016  00000-0  00000-0 0  9991
2 29601  55.9681 297.0954 0076797  66.2469 294.6070  2.00569153101392
1 29601U 06052A   20266.38466687 -.00000014  00000-0  00000-0 0  9991
2 29601  55.9673 297.0559 0076796  66.2436 294.6082  2.00569214101411
1 29601U 06052A   20267.38180145 -.00000011  00000-0  00000-0 0  9991
2 29601  55.9667 297.0166 0076802  66.2261 294.6254  2.00569289101437
1 29601U 06052A   20268.37893778 -.00000007  00000-0  00000-0 0  9999
2 29601  55.9659 296.9772 0076804  66.2255 294.6273  2.00569352101458
1 29601U 06052A   20269.37607520 -.00000003  00000-0  00000-0 0  9994
2 29601  55.9653 296.9378 0076822  66.2380 294.6171  2.00569428101522
1 29601U 06052A   20269.37607523 -.00000003  00000-0  00000-0 0  9997
2 29601  55.9653 296.9378 0076820  66.2292 294.6257  2.00569436101470
1 29601U 06052A   20269.37607523 -.00000003  00000-0  00000-0 0  9997
2 29601  55.9653 296.9378 0076820  66.2292 294.6257  2.00569436101526
1 29601U 06052A   20271.37034711 -.00000004  00000-0  00000-0 0  9994
2 29601  55.9640 296.8591 0076838  66.2119 294.6462  2.00569571101567
1 29601U 06052A   20271.37034743 -.00000004  00000-0  00000-0 0  9999
2 29601  55.9640 296.8591 0076844  66.2093 294.6488  2.00569578101515
1 29601U 06052A   20271.37034743 -.00000004  00000-0  00000-0 0  9999
2 29601  55.9640 296.8591 0076844  66.2093 294.6488  2.00569578101560
1 29601U 06052A   20272.36748034 -.00000009  00000-0  00000-0 0  9999
2 29601  55.9633 296.8197 0076848  66.2000 294.6580  2.00569660101538
1 29601U 06052A   20273.36461162 -.00000014  00000-0  00000-0 0  9990
2 29601  55.9627 296.7804 0076860  66.2057 294.6512  2.00569727101608
1 29601U 06052A   20273.36461196 -.00000014  00000-0  00000-0 0  9997
2 29601  55.9627 296.7804 0076863  66.1996 294.6573  2.00569730101557
1 29601U 06052A   20274.36174141 -.00000020  00000-0  00000-0 0  9996
2 29601  55.9621 296.7411 0076878  66.2014 294.6532  2.00569795101571
1 29601U 06052A   20274.36174164 -.00000020  00000-0  00000-0 0  9991
2 29601  55.9621 296.7410 0076879  66.1990 294.6556  2.00569822101570
1 29601U 06052A   20274.36174164 -.00000020  00000-0  00000-0 0  9991
2 29601  55.9621 296.7410 0076879  66.1990 294.6556  2.00569822101626
1 29601U 06052A   20275.85743274 -.00000025  00000-0  00000-0 0  9995
2 29601  55.9611 296.6820 0076888  66.2100 294.6397  2.00569894101603
1 29601U 06052A   20276.35599653 -.00000026  00000-0  00000-0 0  9992
2 29601  55.9607 296.6623 0076897  66.2092 294.6388  2.00569939101610
1 29601U 06052A   20276.85455986 -.00000026  00000-0  00000+0 0  9996
2 29601  55.9604 296.6427 0076899  66.1999 294.6462  2.00569970101670
1 29601U 06052A   20277.35312318 -.00000025  00000-0  00000-0 0  9993
2 29601  55.9601 296.6230 0076900  66.1980 294.6465  2.00569996101684
1 29601U 06052A   20278.35025037 -.00000021  00000-0  00000-0 0  9999
2 29601  55.9594 296.5837 0076911  66.2085 294.6332  2.00570052101651
1 29601U 06052A   20279.34737903 -.00000014  00000-0  00000-0 0  9993
2 29601  55.9585 296.5442 0076883  66.2245 294.6149  2.00570077101720
1 29601U 06052A   20280.34450864 -.00000006  00000-0  00000-0 0  9994
2 29601  55.9579 296.5048 0076889  66.2250 294.6134  2.00570122101698
1 29601U 06052A   20281.34163972  .00000003  00000-0  00000-0 0  9992
2 29601  55.9572 296.4654 0076893  66.2205 294.6182  2.00570163101719
1 29601U 06052A   20282.33877240  .00000011  00000-0  00000-0 0  9991
2 29601  55.9565 296.4261 0076913  66.2127 294.6275  2.00570190101736
1 29601U 06052A   20282.83734020  .00000014  00000-0  00000-0 0  9997
2 29601  55.9564 296.4065 0076941  66.1872 294.6540  2.00570152101793
1 29601U 06052A   20283.33590684  .00000017  00000-0  00000-0 0  9992
2 29601  55.9561 296.3868 0076948  66.1831 294.6591  2.00570167101750
1 29601U 06052A   20284.33303982  .00000022  00000-0  00000-0 0  9992
2 29601  55.9554 296.3474 0076956  66.1874 294.6570  2.00570190101776
1 29601U 06052A   20285.33017163  .00000023  00000-0  00000+0 0  9996
2 29601  55.9547 296.3081 0076961  66.1912 294.6547  2.00570228101845
1 29601U 06052A   20285.82873682  .00000022  00000-0  00000-0 0  9996
2 29601  55.9543 296.2883 0076975  66.1681 294.6781  2.00570249101852
1 29601U 06052A   20286.32730137  .00000021  00000-0  00000-0 0  9998
2 29601  55.9540 296.2686 0076982  66.1633 294.6827  2.00570268101813
1 29601U 06052A   20287.32442828  .00000015  00000-0  00000-0 0  9999
2 29601  55.9532 296.2293 0076983  66.1702 294.6742  2.00570311101833
1 29601U 06052A   20287.82299080  .00000012  00000-0  00000-0 0  9991
2 29601  55.9529 296.2096 0076988  66.1558 294.6870  2.00570322101894
1 29601U 06052A   20289.31867413 -.00000001  00000-0  00000-0 0  9997
2 29601  55.9517 296.1504 0077006  66.1480 294.6875  2.00570379101921
1 29601U 06052A   20290.31579419 -.00000010  00000-0  00000-0 0  9995
2 29601  55.9510 296.1110 0077029  66.1393 294.6903  2.00570435101896
1 29601U 06052A   20290.31579426 -.00000010  00000-0  00000-0 0  9993
2 29601  55.9510 296.1110 0077022  66.1418 294.6877  2.00570428101945
1 29601U 06052A   20291.31291425 -.00000017  00000-0  00000-0 0  9991
2 29601  55.9503 296.0715 0077039  66.1376 294.6860  2.00570484101964
1 29601U 06052A   20292.31003557 -.00000020  00000-0  00000-0 0  9993
2 29601  55.9496 296.0321 0077055  66.1370 294.6819  2.00570545101984
1 29601U 06052A   20293.30715906 -.00000020  00000-0  00000-0 0  9991
2 29601  55.9489 295.9927 0077072  66.1347 294.6812  2.00570613102002
